OBJECT_NAME,OBJECT_ID,EPOCH,MEAN_MOTION,ECCENTRICITY,INCLINATION,RA_OF_ASC_NODE,ARG_OF_PERICENTER,MEAN_ANOMALY,EPHEMERIS_TYPE,CLASSIFICATION_TYPE,NORAD_CAT_ID,ELEMENT_SET_NO,REV_AT_EPOCH,BSTAR,MEAN_MOTION_DOT,MEAN_MOTION_DDOT
HST,1990-037B,2026-06-06T07:41:12.112512,15.30632786,.00018855,28.4714,154.8380,34.6923,325.3796,0,U,20580,999,78690,.2178043E-3,.6872E-4,0
POLAR,1996-013A,2026-06-06T06:05:29.000832,1.29846142,.64596877,79.8415,227.1806,209.4581,89.1646,0,U,23802,999,14471,0,.121E-5,0
SWAS,1998-071A,2026-06-06T13:06:43.553088,15.09555610,.00089122,69.8962,254.9584,269.5813,90.4330,0,U,25560,999,49566,.33308422E-3,.526E-4,0
CXO,1999-040B,2026-06-07T19:09:26.033472,0.37800379,.78542001,55.9928,116.9568,310.2595,0.2905,0,U,25867,999,1728,0,.708E-5,0
XMM-NEWTON,1999-066A,2026-06-06T09:05:24.562464,0.50125302,.46783319,64.5482,283.1267,65.0797,0.1118,0,U,25989,999,2295,0,.96E-6,0
TERRA,1999-068A,2026-06-06T13:10:27.006816,14.61094823,.00008603,97.9461,207.5165,245.0327,224.6413,0,U,25994,999,40805,.98842388E-4,.441E-5,0
CLUSTER II-FM7 (SAMBA),2000-041A,2026-06-05T23:36:57.501504,0.44829937,.90409651,149.8917,48.5803,265.6480,0.0292,0,U,26410,999,2025,0,.4453E-4,0
CLUSTER II-FM8 (TANGO),2000-045B,2026-06-03T22:20:35.712960,0.44411373,.90429738,150.1347,49.2777,266.1813,3.2525,0,U,26464,999,2025,0,.9075E-4,0
ODIN,2001-007A,2026-06-05T01:51:31.380192,15.71871760,.00063013,97.3851,196.2749,158.1180,202.0353,0,U,26702,999,38749,.10497223E-2,.138173E-2,0
TIMED,2001-055B,2026-06-06T13:42:08.543808,14.95270608,.00005114,74.0681,256.3932,354.4098,5.7081,0,U,26998,999,32923,.14803846E-3,.1591E-4,0
CORIOLIS,2003-001A,2026-06-06T11:40:32.213280,14.19941957,.00129017,98.7127,164.5346,241.7256,118.2619,0,U,27640,999,21270,.76369352E-4,.119E-5,0
SORCE,2003-004A,2026-06-06T13:54:31.928544,15.03655973,.00180361,39.9919,322.1963,331.8317,28.1500,0,U,27651,999,27030,.26435954E-3,.3545E-4,0
MOST,2003-031D,2026-06-06T07:11:41.300448,14.21320271,.00087206,98.7044,165.1775,285.9977,74.0239,0,U,27843,999,18916,.55688717E-4,.78E-6,0
SCISAT 1,2003-036A,2026-06-06T11:43:16.585824,14.81437216,.00087088,73.9289,192.5998,261.3976,98.6214,0,U,27858,999,22986,.8421045E-4,.623E-5,0
SWIFT,2004-047A,2026-06-06T15:00:13.912992,15.67271412,.00027577,20.5528,266.3162,138.0120,222.0537,0,U,28485,999,18520,.53892012E-3,.61964E-3,0
HINODE (SOLAR-B),2006-041A,2026-06-06T11:43:37.364160,14.68608251,.00165456,98.0550,173.7989,326.3006,33.7146,0,U,29479,999,5330,.15640115E-3,.861E-5,0
SHIJIAN-6 02A (SJ-6 02A),2006-046A,2026-06-06T12:53:11.253120,15.16817260,.00035817,97.6360,198.5251,149.6133,210.5308,0,U,29505,999,7065,.43782488E-3,.8542E-4,0
SHIJIAN-6 02B (SJ-6 02B),2006-046B,2026-06-06T13:11:09.731616,15.01349942,.0014528,97.7159,186.6740,91.0573,269.2316,0,U,29506,999,6914,.14100476E-3,.1759E-4,0
FGRST (GLAST),2008-029A,2026-06-06T00:45:32.737824,15.23890133,.0008065,25.5829,281.9389,191.7591,168.2760,0,U,33053,999,99413,.16171E-3,.4358E-4,0
SDO,2010-005A,2026-06-06T08:15:18.948384,1.00271136,.00013983,34.6287,86.5080,50.1694,139.9279,0,U,36395,999,5995,0,-.62E-6,0
CRYOSAT 2,2010-013A,2026-06-06T14:32:06.216864,14.51896194,.00022507,92.0347,274.7301,85.7121,274.4344,0,U,36508,999,85654,.37319952E-4,.153E-5,0
X-SAT,2011-015C,2026-06-06T14:59:17.744352,14.25203309,.00146402,98.3511,135.1519,18.9639,341.2084,0,U,37389,999,78617,.12612056E-3,.255E-5,0
GCOM-W1 (SHIZUKU),2012-025A,2026-06-06T14:47:33.758880,14.57114775,.00018758,98.2020,98.3323,83.5815,89.1960,0,U,38337,999,74749,.12992803E-3,.54E-5,0
NUSTAR,2012-031A,2026-06-06T16:00:01.999584,15.08704615,.00091036,6.0264,113.0449,305.7010,84.2632,0,U,38358,999,130,.33519107E-3,.628E-4,0
NEOSSAT,2013-009D,2026-06-06T11:28:00.220512,14.35822690,.00097938,98.4176,337.7654,279.5440,80.4640,0,U,39089,999,69520,.65887363E-4,.148E-5,0
BRITE-AUSTRIA,2013-009F,2026-06-06T11:33:41.686272,14.36537859,.00089605,98.3993,337.1828,272.5368,87.4793,0,U,39091,999,69551,.80228079E-4,.193E-5,0
IRIS,2013-033A,2026-06-06T12:35:54.613824,14.85864057,.00243802,97.9337,356.8355,357.4012,2.7073,0,U,39197,999,69879,.14590067E-3,.1221E-4,0
HISAKI (SPRINT-A),2013-049A,2026-06-06T14:19:11.547552,13.55543546,.0136916,29.7210,273.8556,291.0311,67.5666,0,U,39253,999,62998,.94356708E-4,.136E-5,0
CASSIOPE,2013-055A,2026-06-06T14:18:35.548992,15.24238499,.02963552,80.9143,79.5717,97.9486,265.5487,0,U,39265,999,66605,.55509675E-3,.50226E-3,-.422091E-6
STSAT-3,2013-066G,2026-06-06T14:12:27.046080,15.02689202,.00108764,97.6216,127.6518,73.0678,287.1738,0,U,39422,999,68261,.22825379E-3,.2989E-4,0
SWARM B,2013-067A,2026-06-06T14:14:33.107136,15.28487102,.00034086,87.7442,345.5360,91.7066,268.4573,0,U,39451,999,68162,.15035098E-3,.42E-4,0
