HST                     
1 20580U 90037B   26157.32027908  .00006872  00000+0  21780-3 0  9999
2 20580  28.4714 154.8380 0001885  34.6923 325.3796 15.30632786786907
POLAR                   
1 23802U 96013A   26157.25380788  .00000121  00000+0  00000+0 0  9998
2 23802  79.8415 227.1806 6459687 209.4581  89.1646  1.29846142144719
SWAS                    
1 25560U 98071A   26157.54633742  .00005260  00000+0  33308-3 0  9990
2 25560  69.8962 254.9584 0008912 269.5813  90.4330 15.09555610495667
CXO                     
1 25867U 99040B   26158.79821798  .00000708  00000+0  00000+0 0  9996
2 25867  55.9928 116.9568 7854200 310.2595   0.2905  0.37800379 17286
XMM-NEWTON              
1 25989U 99066A   26157.37875651  .00000096  00000+0  00000+0 0  9999
2 25989  64.5482 283.1267 4678331  65.0797   0.1118  0.50125302 22956
TERRA                   
1 25994U 99068A   26157.54892369  .00000441  00000+0  98842-4 0  9991
2 25994  97.9461 207.5165 0000860 245.0327 224.6413 14.61094823408057
CLUSTER II-FM7 (SAMBA)  
1 26410U 00041A   26156.98399886  .00004453  00000+0  00000+0 0  9992
2 26410 149.8917  48.5803 9040965 265.6480   0.0292  0.44829937 20254
CLUSTER II-FM8 (TANGO)  
1 26464U 00045B   26154.93096890  .00009075  00000+0  00000+0 0  9992
2 26464 150.1347  49.2777 9042973 266.1813   3.2525  0.44411373 20255
ODIN                    
1 26702U 01007A   26156.07744653  .00138173  00000+0  10497-2 0  9996
2 26702  97.3851 196.2749 0006301 158.1180 202.0353 15.71871760387493
TIMED                   
1 26998U 01055B   26157.57093222  .00001591  00000+0  14804-3 0  9991
2 26998  74.0681 256.3932 0000511 354.4098   5.7081 14.95270608329234
CORIOLIS                
1 27640U 03001A   26157.48648395  .00000119  00000+0  76369-4 0  9996
2 27640  98.7127 164.5346 0012901 241.7256 118.2619 14.19941957212704
SORCE                   
1 27651U 03004A   26157.57953621  .00003545  00000+0  26436-3 0  9997
2 27651  39.9919 322.1963 0018036 331.8317  28.1500 15.03655973270305
MOST                    
1 27843U 03031D   26157.29978357  .00000078  00000+0  55689-4 0  9993
2 27843  98.7044 165.1775 0008720 285.9977  74.0239 14.21320271189167
SCISAT 1                
1 27858U 03036A   26157.48838641  .00000623  00000+0  84210-4 0  9994
2 27858  73.9289 192.5998 0008708 261.3976  98.6214 14.81437216229864
SWIFT                   
1 28485U 04047A   26157.62516103  .00061964  00000+0  53892-3 0  9992
2 28485  20.5528 266.3162 0002757 138.0120 222.0537 15.67271412185206
HINODE (SOLAR-B)        
1 29479U 06041A   26157.48862690  .00000861  00000+0  15640-3 0  9999
2 29479  98.0550 173.7989 0016545 326.3006  33.7146 14.68608251 53301
SHIJIAN-6 02A (SJ-6 02A)
1 29505U 06046A   26157.53693580  .00008542  00000+0  43782-3 0  9992
2 29505  97.6360 198.5251 0003581 149.6133 210.5308 15.16817260 70653
SHIJIAN-6 02B (SJ-6 02B)
1 29506U 06046B   26157.54941819  .00001759  00000+0  14100-3 0  9990
2 29506  97.7159 186.6740 0014528  91.0573 269.2316 15.01349942 69146
FGRST (GLAST)           
1 33053U 08029A   26157.03162891  .00004358  00000+0  16171-3 0  9992
2 33053  25.5829 281.9389 0008065 191.7591 168.2760 15.23890133994130
SDO                     
1 36395U 10005A   26157.34396931 -.00000062  00000+0  00000+0 0  9998
2 36395  34.6287  86.5080 0001398  50.1694 139.9279  1.00271136 59950
CRYOSAT 2               
1 36508U 10013A   26157.60562751  .00000153  00000+0  37320-4 0  9997
2 36508  92.0347 274.7301 0002250  85.7121 274.4344 14.51896194856540
X-SAT                   
1 37389U 11015C   26157.62451093  .00000255  00000+0  12612-3 0  9995
2 37389  98.3511 135.1519 0014640  18.9639 341.2084 14.25203309786175
GCOM-W1 (SHIZUKU)       
1 38337U 12025A   26157.61636295  .00000540  00000+0  12993-3 0  9998
2 38337  98.2020  98.3323 0001875  83.5815  89.1960 14.57114775747492
NUSTAR                  
1 38358U 12031A   26157.66668981  .00006280  00000+0  33519-3 0  9994
2 38358   6.0264 113.0449 0009103 305.7010  84.2632 15.08704615  1304
NEOSSAT                 
1 39089U 13009D   26157.47778033  .00000148  00000+0  65887-4 0  9992
2 39089  98.4176 337.7654 0009793 279.5440  80.4640 14.35822690695204
BRITE-AUSTRIA           
1 39091U 13009F   26157.48173248  .00000193  00000+0  80228-4 0  9999
2 39091  98.3993 337.1828 0008960 272.5368  87.4793 14.36537859695518
IRIS                    
1 39197U 13033A   26157.52493766  .00001221  00000+0  14590-3 0  9999
2 39197  97.9337 356.8355 0024380 357.4012   2.7073 14.85864057698799
HISAKI (SPRINT-A)       
1 39253U 13049A   26157.59666143  .00000136  00000+0  94357-4 0  9991
2 39253  29.7210 273.8556 0136916 291.0311  67.5666 13.55543546629985
CASSIOPE                
1 39265U 13055A   26157.59624478  .00050226 -42209-6  55510-3 0  9993
2 39265  80.9143  79.5717 0296355  97.9486 265.5487 15.24238499666058
STSAT-3                 
1 39422U 13066G   26157.59197970  .00002989  00000+0  22825-3 0  9993
2 39422  97.6216 127.6518 0010876  73.0678 287.1738 15.02689202682610
SWARM B                 
1 39451U 13067A   26157.59343874  .00004200  00000+0  15035-3 0  9995
2 39451  87.7442 345.5360 0003408  91.7066 268.4573 15.28487102681622
